ORBCOMM FM37            
1 33064U 08031E   24305.53642630  .00006968  00000+0  98332-3 0  9997
2 33064  48.4407 349.3456 0004857 111.1175   0.8254 14.77981000880529
ORBCOMM FM40            
1 33065U 08031F   24305.56440948  .00009045  00000+0  12170-2 0  9993
2 33065  48.4423 336.6915 0006101 121.4415  10.5505 14.79709054880270
VESSELSAT 1             
1 37840U 11058C   24305.58711950  .00000767  00000+0  27402-3 0  9994
2 37840  19.9632  37.0468 0013556 191.6459 168.3633 14.11248741673972
ORBCOMM FM109           
1 40086U 14040A   24305.55311856  .00004827  00000+0  10889-2 0  9993
2 40086  47.0042  15.5141 0002618 318.3917  41.6769 14.57458560547704
ORBCOMM FM107           
1 40087U 14040B   24305.52078336  .00003663  00000+0  83642-3 0  9999
2 40087  47.0061  16.6812 0002266 294.6657  65.3992 14.57393137547775
ORBCOMM FM106           
1 40088U 14040C   24305.82804476  .00005956  00000+0  10542-2 0  9990
2 40088  47.0593 215.3053 0017139  86.6494 273.6356 14.68147627550117
ORBCOMM FM111           
1 40089U 14040D   24305.83524307  .00007290  00000+0  88874-3 0  9991
2 40089  47.0019  95.2342 0032278 183.5617 176.5053 14.83694471556282
ORBCOMM FM104           
1 40090U 14040E   24305.53760237  .00004106  00000+0  96313-3 0  9994
2 40090  47.0055  47.5146 0017763 241.7303 118.1789 14.55846485547299
